HULIANWANG DIGUI-140    
1 67438U 26007D   26199.07969527 -.00000106  00000+0  38663-4 0  9992
2 67438  50.0073 335.2436 0000863 125.6996 234.3957 13.29326166 24891
HULIANWANG DIGUI-141    
1 67439U 26007E   26198.74552995 -.00000094  00000+0  64198-4 0  9991
2 67439  50.0066 336.1378 0000870 122.0632 238.0325 13.29326922 24851
HULIANWANG DIGUI-142    
1 67440U 26007F   26199.11310561 -.00000103  00000+0  46139-4 0  9992
2 67440  50.0140 334.8634 0000862 127.0448 233.0503 13.29326728 24900
HULIANWANG DIGUI-143    
1 67441U 26007G   26199.10479926 -.00000097  00000+0  57809-4 0  9991
2 67441  50.0121 334.7909 0000717 129.2366 230.8570 13.29325181 24907
HULIANWANG DIGUI-144    
1 67442U 26007H   26198.79553162 -.00000103  00000+0  46305-4 0  9998
2 67442  50.0107 335.8093 0000875 128.9139 231.1811 13.29329377 24865
HULIANWANG DIGUI-145    
1 67443U 26007J   26199.31362978 -.00000107  00000+0  36669-4 0  9997
2 67443  50.0112 333.8853 0000821 128.1350 231.9596 13.29325916 24933
HULIANWANG DIGUI-146    
1 67522U 26013A   26199.13289135 -.00000099  00000+0  54645-4 0  9999
2 67522  50.0066 244.9208 0001349 229.2030 130.8726 13.29325375 24165
HULIANWANG DIGUI-147    
1 67523U 26013B   26198.59813222 -.00000100  00000+0  51206-4 0  9992
2 67523  50.0040 246.7159 0001253 227.7571 132.3194 13.29328874 24095
HULIANWANG DIGUI-148    
1 67524U 26013C   26198.51457280 -.00000095  00000+0  62195-4 0  9995
2 67524  50.0078 247.0052 0001289 226.9628 133.1136 13.29326789 24083
HULIANWANG DIGUI-149    
1 67525U 26013D   26197.52902359 -.00000118  00000+0  13371-4 0  9996
2 67525  50.0074 250.4586 0001512 225.6042 134.4706 13.29331310 23953
HULIANWANG DIGUI-150    
1 67526U 26013E   26199.09111204 -.00000182  00000+0 -12583-3 0  9997
2 67526  50.0039 244.6504 0001285 229.9713 130.1046 13.29324812 24184
HULIANWANG DIGUI-151    
1 67527U 26013F   26199.09942899 -.00000163  00000+0 -83431-4 0  9990
2 67527  50.0089 244.7612 0001219 229.8382 130.2384 13.29327305 24163
HULIANWANG DIGUI-152    
1 67528U 26013G   26199.15783670 -.00000098  00000+0  55348-4 0  9990
2 67528  50.0023 244.3269 0001272 231.4334 128.6424 13.29332704 24177
HULIANWANG DIGUI-153    
1 67529U 26013H   26199.14959254 -.00000101  00000+0  49144-4 0  9995
2 67529  50.0025 244.2870 0001306 233.6306 126.4446 13.29324007 24164
HULIANWANG DIGUI-154    
1 67530U 26013J   26199.06594073 -.00000097  00000+0  59126-4 0  9997
2 67530  50.0049 244.5523 0001273 230.8589 129.2170 13.29332475 24157
HULIANWANG DIGUI-155    
1 68129U 26047A   26198.75194210 -.00000092  00000+0  68195-4 0  9994
2 68129  50.0049 306.7627 0000905 208.4106 151.6717 13.29325790 17133
