{"fetched_at":"2026-07-18T17:29:57.623Z","source":"https://celestrak.org/NORAD/elements/gp.php?NAME=HULIANWANG&FORMAT=JSON","constellation":"guowang","records":[{"OBJECT_NAME":"HULIANWANG DIGUI-140","OBJECT_ID":"2026-007D","EPOCH":"2026-07-18T01:54:45.671328","CLASSIFICATION_TYPE":"U","MEAN_MOTION":13.29326166,"ECCENTRICITY":0.00008633,"INCLINATION":50.0073,"RA_OF_ASC_NODE":335.2436,"ARG_OF_PERICENTER":125.6996,"MEAN_ANOMALY":234.3957,"EPHEMERIS_TYPE":0,"NORAD_CAT_ID":67438,"ELEMENT_SET_NO":999,"REV_AT_EPOCH":2489,"BSTAR":0.00003866298,"MEAN_MOTION_DOT":-0.00000106,"MEAN_MOTION_DDOT":0},{"OBJECT_NAME":"HULIANWANG DIGUI-141","OBJECT_ID":"2026-007E","EPOCH":"2026-07-17T17:53:33.787680","CLASSIFICATION_TYPE":"U","MEAN_MOTION":13.29326922,"ECCENTRICITY":0.00008701,"INCLINATION":50.0066,"RA_OF_ASC_NODE":336.1378,"ARG_OF_PERICENTER":122.0632,"MEAN_ANOMALY":238.0325,"EPHEMERIS_TYPE":0,"NORAD_CAT_ID":67439,"ELEMENT_SET_NO":999,"REV_AT_EPOCH":2485,"BSTAR":0.00006419783,"MEAN_MOTION_DOT":-9.4e-7,"MEAN_MOTION_DDOT":0},{"OBJECT_NAME":"HULIANWANG DIGUI-142","OBJECT_ID":"2026-007F","EPOCH":"2026-07-18T02:42:52.324704","CLASSIFICATION_TYPE":"U","MEAN_MOTION":13.29326728,"ECCENTRICITY":0.00008627,"INCLINATION":50.014,"RA_OF_ASC_NODE":334.8634,"ARG_OF_PERICENTER":127.0448,"MEAN_ANOMALY":233.0503,"EPHEMERIS_TYPE":0,"NORAD_CAT_ID":67440,"ELEMENT_SET_NO":999,"REV_AT_EPOCH":2490,"BSTAR":0.000046138582,"MEAN_MOTION_DOT":-0.00000103,"MEAN_MOTION_DDOT":0},{"OBJECT_NAME":"HULIANWANG DIGUI-143","OBJECT_ID":"2026-007G","EPOCH":"2026-07-18T02:30:54.656064","CLASSIFICATION_TYPE":"U","MEAN_MOTION":13.29325181,"ECCENTRICITY":0.00007178,"INCLINATION":50.0121,"RA_OF_ASC_NODE":334.7909,"ARG_OF_PERICENTER":129.2366,"MEAN_ANOMALY":230.857,"EPHEMERIS_TYPE":0,"NORAD_CAT_ID":67441,"ELEMENT_SET_NO":999,"REV_AT_EPOCH":2490,"BSTAR":0.00005780856,"MEAN_MOTION_DOT":-9.7e-7,"MEAN_MOTION_DDOT":0},{"OBJECT_NAME":"HULIANWANG DIGUI-144","OBJECT_ID":"2026-007H","EPOCH":"2026-07-17T19:05:33.931968","CLASSIFICATION_TYPE":"U","MEAN_MOTION":13.29329377,"ECCENTRICITY":0.00008759,"INCLINATION":50.0107,"RA_OF_ASC_NODE":335.8093,"ARG_OF_PERICENTER":128.9139,"MEAN_ANOMALY":231.1811,"EPHEMERIS_TYPE":0,"NORAD_CAT_ID":67442,"ELEMENT_SET_NO":999,"REV_AT_EPOCH":2486,"BSTAR":0.000046305425,"MEAN_MOTION_DOT":-0.00000103,"MEAN_MOTION_DDOT":0},{"OBJECT_NAME":"HULIANWANG DIGUI-145","OBJECT_ID":"2026-007J","EPOCH":"2026-07-18T07:31:37.612992","CLASSIFICATION_TYPE":"U","MEAN_MOTION":13.29325916,"ECCENTRICITY":0.00008212,"INCLINATION":50.0112,"RA_OF_ASC_NODE":333.8853,"ARG_OF_PERICENTER":128.135,"MEAN_ANOMALY":231.9596,"EPHEMERIS_TYPE":0,"NORAD_CAT_ID":67443,"ELEMENT_SET_NO":999,"REV_AT_EPOCH":2493,"BSTAR":0.000036669384,"MEAN_MOTION_DOT":-0.00000107,"MEAN_MOTION_DDOT":0},{"OBJECT_NAME":"HULIANWANG DIGUI-146","OBJECT_ID":"2026-013A","EPOCH":"2026-07-18T03:11:21.812640","CLASSIFICATION_TYPE":"U","MEAN_MOTION":13.29325375,"ECCENTRICITY":0.00013493,"INCLINATION":50.0066,"RA_OF_ASC_NODE":244.9208,"ARG_OF_PERICENTER":229.203,"MEAN_ANOMALY":130.8726,"EPHEMERIS_TYPE":0,"NORAD_CAT_ID":67522,"ELEMENT_SET_NO":999,"REV_AT_EPOCH":2416,"BSTAR":0.000054644879,"MEAN_MOTION_DOT":-9.9e-7,"MEAN_MOTION_DDOT":0},{"OBJECT_NAME":"HULIANWANG DIGUI-147","OBJECT_ID":"2026-013B","EPOCH":"2026-07-17T14:21:18.623808","CLASSIFICATION_TYPE":"U","MEAN_MOTION":13.29328874,"ECCENTRICITY":0.0001253,"INCLINATION":50.004,"RA_OF_ASC_NODE":246.7159,"ARG_OF_PERICENTER":227.7571,"MEAN_ANOMALY":132.3194,"EPHEMERIS_TYPE":0,"NORAD_CAT_ID":67523,"ELEMENT_SET_NO":999,"REV_AT_EPOCH":2409,"BSTAR":0.000051206,"MEAN_MOTION_DOT":-0.000001,"MEAN_MOTION_DDOT":0},{"OBJECT_NAME":"HULIANWANG DIGUI-148","OBJECT_ID":"2026-013C","EPOCH":"2026-07-17T12:20:59.089920","CLASSIFICATION_TYPE":"U","MEAN_MOTION":13.29326789,"ECCENTRICITY":0.0001289,"INCLINATION":50.0078,"RA_OF_ASC_NODE":247.0052,"ARG_OF_PERICENTER":226.9628,"MEAN_ANOMALY":133.1136,"EPHEMERIS_TYPE":0,"NORAD_CAT_ID":67524,"ELEMENT_SET_NO":999,"REV_AT_EPOCH":2408,"BSTAR":0.000062195,"MEAN_MOTION_DOT":-9.5e-7,"MEAN_MOTION_DDOT":0},{"OBJECT_NAME":"HULIANWANG DIGUI-149","OBJECT_ID":"2026-013D","EPOCH":"2026-07-16T12:41:47.638176","CLASSIFICATION_TYPE":"U","MEAN_MOTION":13.2933131,"ECCENTRICITY":0.0001512,"INCLINATION":50.0074,"RA_OF_ASC_NODE":250.4586,"ARG_OF_PERICENTER":225.6042,"MEAN_ANOMALY":134.4706,"EPHEMERIS_TYPE":0,"NORAD_CAT_ID":67525,"ELEMENT_SET_NO":999,"REV_AT_EPOCH":2395,"BSTAR":0.000013371,"MEAN_MOTION_DOT":-0.00000118,"MEAN_MOTION_DDOT":0},{"OBJECT_NAME":"HULIANWANG DIGUI-150","OBJECT_ID":"2026-013E","EPOCH":"2026-07-18T02:11:12.080256","CLASSIFICATION_TYPE":"U","MEAN_MOTION":13.29324812,"ECCENTRICITY":0.00012859,"INCLINATION":50.0039,"RA_OF_ASC_NODE":244.6504,"ARG_OF_PERICENTER":229.9713,"MEAN_ANOMALY":130.1046,"EPHEMERIS_TYPE":0,"NORAD_CAT_ID":67526,"ELEMENT_SET_NO":999,"REV_AT_EPOCH":2418,"BSTAR":-0.00012583075,"MEAN_MOTION_DOT":-0.00000182,"MEAN_MOTION_DDOT":0},{"OBJECT_NAME":"HULIANWANG DIGUI-151","OBJECT_ID":"2026-013F","EPOCH":"2026-07-18T02:23:10.664736","CLASSIFICATION_TYPE":"U","MEAN_MOTION":13.29327305,"ECCENTRICITY":0.00012197,"INCLINATION":50.0089,"RA_OF_ASC_NODE":244.7612,"ARG_OF_PERICENTER":229.8382,"MEAN_ANOMALY":130.2384,"EPHEMERIS_TYPE":0,"NORAD_CAT_ID":67527,"ELEMENT_SET_NO":999,"REV_AT_EPOCH":2416,"BSTAR":-0.000083431219,"MEAN_MOTION_DOT":-0.00000163,"MEAN_MOTION_DDOT":0},{"OBJECT_NAME":"HULIANWANG DIGUI-152","OBJECT_ID":"2026-013G","EPOCH":"2026-07-18T03:47:17.090880","CLASSIFICATION_TYPE":"U","MEAN_MOTION":13.29332704,"ECCENTRICITY":0.00012721,"INCLINATION":50.0023,"RA_OF_ASC_NODE":244.3269,"ARG_OF_PERICENTER":231.4334,"MEAN_ANOMALY":128.6424,"EPHEMERIS_TYPE":0,"NORAD_CAT_ID":67528,"ELEMENT_SET_NO":999,"REV_AT_EPOCH":2417,"BSTAR":0.000055347621,"MEAN_MOTION_DOT":-9.8e-7,"MEAN_MOTION_DDOT":0},{"OBJECT_NAME":"HULIANWANG DIGUI-153","OBJECT_ID":"2026-013H","EPOCH":"2026-07-18T03:35:24.795456","CLASSIFICATION_TYPE":"U","MEAN_MOTION":13.29324007,"ECCENTRICITY":0.00013063,"INCLINATION":50.0025,"RA_OF_ASC_NODE":244.287,"ARG_OF_PERICENTER":233.6306,"MEAN_ANOMALY":126.4446,"EPHEMERIS_TYPE":0,"NORAD_CAT_ID":67529,"ELEMENT_SET_NO":999,"REV_AT_EPOCH":2416,"BSTAR":0.000049144492,"MEAN_MOTION_DOT":-0.00000101,"MEAN_MOTION_DDOT":0},{"OBJECT_NAME":"HULIANWANG DIGUI-154","OBJECT_ID":"2026-013J","EPOCH":"2026-07-18T01:34:57.279072","CLASSIFICATION_TYPE":"U","MEAN_MOTION":13.29332475,"ECCENTRICITY":0.00012734,"INCLINATION":50.0049,"RA_OF_ASC_NODE":244.5523,"ARG_OF_PERICENTER":230.8589,"MEAN_ANOMALY":129.217,"EPHEMERIS_TYPE":0,"NORAD_CAT_ID":67530,"ELEMENT_SET_NO":999,"REV_AT_EPOCH":2415,"BSTAR":0.000059125728,"MEAN_MOTION_DOT":-9.7e-7,"MEAN_MOTION_DDOT":0},{"OBJECT_NAME":"HULIANWANG DIGUI-155","OBJECT_ID":"2026-047A","EPOCH":"2026-07-17T18:02:47.797440","CLASSIFICATION_TYPE":"U","MEAN_MOTION":13.2932579,"ECCENTRICITY":0.00009059,"INCLINATION":50.0049,"RA_OF_ASC_NODE":306.7627,"ARG_OF_PERICENTER":208.4106,"MEAN_ANOMALY":151.6717,"EPHEMERIS_TYPE":0,"NORAD_CAT_ID":68129,"ELEMENT_SET_NO":999,"REV_AT_EPOCH":1713,"BSTAR":0.000068195139,"MEAN_MOTION_DOT":-9.2e-7,"MEAN_MOTION_DDOT":0}]}
